OBJECT B                
1 51825U 22019B   25058.91742105  .00035987  00000+0  10668-2 0  9998
2 51825  97.3969 134.8825 0011900  58.8103 301.4305 15.34685598166275
